CTC2_L_00031016-03
1 60756U 25271PN  26037.47790509  .00000000  00000+0  00000-0 0  9999
2 60756 100.0000 180.0000 0000000   0.0000   0.0000 15.69614506    10
CTC2_L_00031016-04
1 60757U 22974OL  26037.47790509  .00000000  00000+0  00000-0 0  9997
2 60757 100.0000 180.0000 0000000   0.0000  90.0000 15.69614506    10
CTC2_L_00031017-01
1 60758U 25552ZP  26037.47790509  .00000000  00000+0  00000-0 0  9993
2 60758 100.0000 192.0000 0000000   0.0000 192.0000 15.69614506    17
CTC2_L_00031017-02
1 60759U 24651EL  26037.47790509  .00000000  00000+0  00000-0 0  9993
2 60759 100.0000 192.0000 0000000   0.0000 282.0000 15.69614506    18
CTC2_L_00031017-03
1 60760U 26143OI  26037.47790509  .00000000  00000+0  00000-0 0  9993
2 60760 100.0000 192.0000 0000000   0.0000  12.0000 15.69614506    11
CTC2_L_00031017-04
1 60761U 23251KT  26037.47790509  .00000000  00000+0  00000-0 0  9991
2 60761 100.0000 192.0000 0000000   0.0000 102.0000 15.69614506    12
CTC2_L_00031018-01
1 60762U 22112GH  26037.47790509  .00000000  00000+0  00000-0 0  9997
2 60762 100.0000 204.0000 0000000   0.0000 204.0000 15.69614506    10
CTC2_L_00031018-02
1 60763U 23442TD  26037.47790509  .00000000  00000+0  00000-0 0  9995
2 60763 100.0000 204.0000 0000000   0.0000 294.0000 15.69614506    10
CTC2_L_00031018-03
1 60764U 23518IX  26037.47790509  .00000000  00000+0  00000-0 0  9990
2 60764 100.0000 204.0000 0000000   0.0000  24.0000 15.69614506    12
CTC2_L_00031018-04
1 60765U 25797BI  26037.47790509  .00000000  00000+0  00000-0 0  9992
2 60765 100.0000 204.0000 0000000   0.0000 114.0000 15.69614506    13
CTC2_L_00031019-01
1 60766U 23272PC  26037.47790509  .00000000  00000+0  00000-0 0  9999
2 60766 100.0000 216.0000 0000000   0.0000 216.0000 15.69614506    10
CTC2_L_00031019-02
1 60767U 24228GC  26037.47790509  .00000000  00000+0  00000-0 0  9992
2 60767 100.0000 216.0000 0000000   0.0000 306.0000 15.69614506    11
CTC2_L_00031019-03
1 60768U 24038FI  26037.47790509  .00000000  00000+0  00000-0 0  9992
2 60768 100.0000 216.0000 0000000   0.0000  36.0000 15.69614506    12
CTC2_L_00031019-04
1 60769U 25648HB  26037.47790509  .00000000  00000+0  00000-0 0  9991
2 60769 100.0000 216.0000 0000000   0.0000 126.0000 15.69614506    13
CTC2_L_00031020-01
1 60770U 22453EA  26037.47790509  .00000000  00000+0  00000-0 0  9994
2 60770 100.0000 228.0000 0000000   0.0000 228.0000 15.69614506    11
CTC2_L_00031020-02
1 60771U 25478GU  26037.47790509  .00000000  00000+0  00000-0 0  9995
2 60771 100.0000 228.0000 0000000   0.0000 318.0000 15.69614506    12
CTC2_L_00031020-03
1 60772U 23862XP  26037.47790509  .00000000  00000+0  00000-0 0  9991
2 60772 100.0000 228.0000 0000000   0.0000  48.0000 15.69614506    13
CTC2_L_00031020-04
1 60773U 24054LU  26037.47790509  .00000000  00000+0  00000-0 0  9996
2 60773 100.0000 228.0000 0000000   0.0000 138.0000 15.69614506    14
CTC2_L_00031021-01
1 60774U 25809EA  26037.47790509  .00000000  00000+0  00000-0 0  9996
2 60774 100.0000 240.0000 0000000   0.0000 240.0000 15.69614506    13
CTC2_L_00031021-02
1 60775U 25164KX  26037.47790509  .00000000  00000+0  00000-0 0  9991
2 60775 100.0000 240.0000 0000000   0.0000 330.0000 15.69614506    14
CTC2_L_00031021-03
1 60776U 24326SG  26037.47790509  .00000000  00000+0  00000-0 0  9991
2 60776 100.0000 240.0000 0000000   0.0000  60.0000 15.69614506    15
CTC2_L_00031021-04
1 60777U 23684TB  26037.47790509  .00000000  00000+0  00000-0 0  9998
2 60777 100.0000 240.0000 0000000   0.0000 150.0000 15.69614506    16
CTC2_L_00031022-01
1 60778U 23874ZX  26037.47790509  .00000000  00000+0  00000-0 0  9990
2 60778 100.0000 252.0000 0000000   0.0000 252.0000 15.69614506    13
CTC2_L_00031022-02
1 60779U 24846SZ  26037.47790509  .00000000  00000+0  00000-0 0  9991
2 60779 100.0000 252.0000 0000000   0.0000 342.0000 15.69614506    14
CTC2_L_00031022-03
1 60780U 25550UY  26037.47790509  .00000000  00000+0  00000-0 0  9996
2 60780 100.0000 252.0000 0000000   0.0000  72.0000 15.69614506    16
CTC2_L_00031022-04
1 60781U 24944WX  26037.47790509  .00000000  00000+0  00000-0 0  9993
2 60781 100.0000 252.0000 0000000   0.0000 162.0000 15.69614506    17
CTC2_L_00031023-01
1 60782U 24481KU  26037.47790509  .00000000  00000+0  00000-0 0  9990
2 60782 100.0000 264.0000 0000000   0.0000 264.0000 15.69614506    14
CTC2_L_00031023-02
1 60783U 25826OZ  26037.47790509  .00000000  00000+0  00000-0 0  9995
2 60783 100.0000 264.0000 0000000   0.0000 354.0000 15.69614506    15
CTC2_L_00031023-03
1 60784U 23784ZA  26037.47790509  .00000000  00000+0  00000-0 0  9997
2 60784 100.0000 264.0000 0000000   0.0000  84.0000 15.69614506    16
CTC2_L_00031023-04
1 60785U 22323TI  26037.47790509  .00000000  00000+0  00000-0 0  9996
2 60785 100.0000 264.0000 0000000   0.0000 174.0000 15.69614506    17
CTC2_L_00031024-01
1 60786U 24455AS  26037.47790509  .00000000  00000+0  00000-0 0  9995
2 60786 100.0000 276.0000 0000000   0.0000 276.0000 15.69614506    14
CTC2_L_00031024-02
1 60787U 26374LH  26037.47790509  .00000000  00000+0  00000-0 0  9998
2 60787 100.0000 276.0000 0000000   0.0000   6.0000 15.69614506    16
CTC2_L_00031024-03
1 60788U 24748LZ  26037.47790509  .00000000  00000+0  00000-0 0  9992
2 60788 100.0000 276.0000 0000000   0.0000  96.0000 15.69614506    16
CTC2_L_00031024-04
1 60789U 24211QL  26037.47790509  .00000000  00000+0  00000-0 0  9998
2 60789 100.0000 276.0000 0000000   0.0000 186.0000 15.69614506    17
CTC2_L_00031025-01
1 60790U 24628TB  26037.47790509  .00000000  00000+0  00000-0 0  9992
2 60790 100.0000 288.0000 0000000   0.0000 288.0000 15.69614506    15
CTC2_L_00031025-02
1 60791U 24228SA  26037.47790509  .00000000  00000+0  00000-0 0  9999
2 60791 100.0000 288.0000 0000000   0.0000  18.0000 15.69614506    17
CTC2_L_00031025-03
1 60792U 23070VE  26037.47790509  .00000000  00000+0  00000-0 0  9994
2 60792 100.0000 288.0000 0000000   0.0000 108.0000 15.69614506    18
CTC2_L_00031025-04
1 60793U 26767QO  26037.47790509  .00000000  00000+0  00000-0 0  9991
2 60793 100.0000 288.0000 0000000   0.0000 198.0000 15.69614506    18
CTC2_L_00031026-01
1 60794U 26857OW  26037.47790509  .00000000  00000+0  00000-0 0  9992
2 60794 100.0000 300.0000 0000000   0.0000 300.0000 15.69614506    19
CTC2_L_00031026-02
1 60795U 24170TQ  26037.47790509  .00000000  00000+0  00000-0 0  9999
2 60795 100.0000 300.0000 0000000   0.0000  30.0000 15.69614506    10
CTC2_L_00031026-03
1 60796U 22510QD  26037.47790509  .00000000  00000+0  00000-0 0  9996
2 60796 100.0000 300.0000 0000000   0.0000 120.0000 15.69614506    11
CTC2_L_00031026-04
1 60797U 25179NS  26037.47790509  .00000000  00000+0  00000-0 0  9991
2 60797 100.0000 300.0000 0000000   0.0000 210.0000 15.69614506    12
CTC2_L_00031027-01
1 60798U 23992VK  26037.47790509  .00000000  00000+0  00000-0 0  9993
2 60798 100.0000 312.0000 0000000   0.0000 312.0000 15.69614506    19
CTC2_L_00031027-02
1 60799U 22728NG  26037.47790509  .00000000  00000+0  00000-0 0  9990
2 60799 100.0000 312.0000 0000000   0.0000  42.0000 15.69614506    10
CTC2_L_00031027-03
1 60800U 26961IA  26037.47790509  .00000000  00000+0  00000-0 0  9996
2 60800 100.0000 312.0000 0000000   0.0000 132.0000 15.69614506    13
CTC2_L_00031027-04
1 60801U 23875RK  26037.47790509  .00000000  00000+0  00000-0 0  9998
2 60801 100.0000 312.0000 0000000   0.0000 222.0000 15.69614506    14
CTC2_L_00031028-01
1 60802U 24167AB  26037.47790509  .00000000  00000+0  00000-0 0  9994
2 60802 100.0000 324.0000 0000000   0.0000 324.0000 15.69614506    11
CTC2_L_00031028-02
1 60803U 26854UT  26037.47790509  .00000000  00000+0  00000-0 0  9990
2 60803 100.0000 324.0000 0000000   0.0000  54.0000 15.69614506    12
CTC2_L_00031028-03
1 60804U 25450IU  26037.47790509  .00000000  00000+0  00000-0 0  9992
2 60804 100.0000 324.0000 0000000   0.0000 144.0000 15.69614506    13
CTC2_L_00031028-04
1 60805U 24997TF  26037.47790509  .00000000  00000+0  00000-0 0  9998
2 60805 100.0000 324.0000 0000000   0.0000 234.0000 15.69614506    14
CTC2_L_00031029-01
1 60806U 24185CG  26037.47790509  .00000000  00000+0  00000-0 0  9998
2 60806 100.0000 336.0000 0000000   0.0000 336.0000 15.69614506    11
CTC2_L_00031029-02
1 60807U 26290KI  26037.47790509  .00000000  00000+0  00000-0 0  9998
2 60807 100.0000 336.0000 0000000   0.0000  66.0000 15.69614506    12
CTC2_L_00031029-03
1 60808U 23381BW  26037.47790509  .00000000  00000+0  00000-0 0  9997
2 60808 100.0000 336.0000 0000000   0.0000 156.0000 15.69614506    13
CTC2_L_00031029-04
1 60809U 25173O   26037.47790509  .00000000  00000+0  00000-0 0  9999
2 60809 100.0000 336.0000 0000000   0.0000 246.0000 15.69614506    14
CTC2_L_00031030-01
1 60810U 23032VB  26037.47790509  .00000000  00000+0  00000-0 0  9993
2 60810 100.0000 348.0000 0000000   0.0000 348.0000 15.69614506    12
CTC2_L_00031030-02
1 60811U 24156ID  26037.47790509  .00000000  00000+0  00000-0 0  9992
2 60811 100.0000 348.0000 0000000   0.0000  78.0000 15.69614506    13
CTC2_L_00031030-03
1 60812U 22762FC  26037.47790509  .00000000  00000+0  00000-0 0  9994
2 60812 100.0000 348.0000 0000000   0.0000 168.0000 15.69614506    14
CTC2_L_00031030-04
1 60813U 25929NZ  26037.47790509  .00000000  00000+0  00000-0 0  9993
2 60813 100.0000 348.0000 0000000   0.0000 258.0000 15.69614506    15
